IRIDIUM 7               
1 24793U 97020B   25274.51412611  .00000800  00000+0  26858-3 0  9993
2 24793  86.3955 132.3946 0002361  92.0728 268.0739 14.36016958487154
IRIDIUM 5               
1 24795U 97020D   25274.28261870  .00016877  00000+0  13506-2 0  9994
2 24795  86.3905  34.7472 0108456 116.8211 244.4159 14.95483011501316
IRIDIUM 4               
1 24796U 97020E   25274.50056766  .00000826  00000+0  27266-3 0  9992
2 24796  86.3945 129.2072 0002134  90.2014 269.9428 14.36918534487737
IRIDIUM 914             
1 24836U 97030A   25274.06709640  .00000796  00000+0  24186-3 0  9999
2 24836  86.3944 137.6772 0001257 134.6047 225.5256 14.40962834622370
IRIDIUM 16              
1 24841U 97030F   25274.39473719  .00000840  00000+0  26720-3 0  9992
2 24841  86.4087 160.7072 0004304  81.2168 278.9518 14.38795716482278
IRIDIUM 911             
1 24842U 97030G   25274.07710058  .00001138  00000+0  30211-3 0  9999
2 24842  86.4511 159.4965 0016253 102.0048 258.2978 14.47763298490407
IRIDIUM 17              
1 24870U 97034B   25274.30785556  .00001179  00000+0  38425-3 0  9995
2 24870  86.4029 190.1563 0003405  60.0867 300.0669 14.37927025478830
IRIDIUM 920             
1 24871U 97034C   25274.42509501  .00001019  00000+0  30674-3 0  9994
2 24871  86.4040 169.1212 0013728  90.2824 269.9949 14.41631374481885
